{
  "data": [
    {
      "id": 1,
      "name": "Saudi Arabia",
      "currency": "SAR",
      "code": "sa",
      "phone_code": "00966",
      "flag": "\ud83c\uddf8\ud83c\udde6"
    },
    {
      "id": 2,
      "name": "Egypt",
      "currency": "EGP",
      "code": "eg",
      "phone_code": "0020",
      "flag": "\ud83c\uddea\ud83c\uddec"
    },
    {
      "id": 3,
      "name": "Afghanistan",
      "currency": "AFN",
      "code": "af",
      "phone_code": "0093",
      "flag": "\ud83c\udde6\ud83c\uddeb"
    },
    {
      "id": 4,
      "name": "Albania",
      "currency": "ALL",
      "code": "al",
      "phone_code": "00355",
      "flag": "\ud83c\udde6\ud83c\uddf1"
    },
    {
      "id": 5,
      "name": "Algeria",
      "currency": "DZD",
      "code": "dz",
      "phone_code": "00213",
      "flag": "\ud83c\udde9\ud83c\uddff"
    },
    {
      "id": 6,
      "name": "Andorra",
      "currency": "EUR",
      "code": "ad",
      "phone_code": "00376",
      "flag": "\ud83c\udde6\ud83c\udde9"
    },
    {
      "id": 7,
      "name": "Angola",
      "currency": "AOA",
      "code": "ao",
      "phone_code": "00244",
      "flag": "\ud83c\udde6\ud83c\uddf4"
    },
    {
      "id": 8,
      "name": "Argentina",
      "currency": "ARS",
      "code": "ar",
      "phone_code": "0054",
      "flag": "\ud83c\udde6\ud83c\uddf7"
    },
    {
      "id": 9,
      "name": "Armenia",
      "currency": "AMD",
      "code": "am",
      "phone_code": "00374",
      "flag": "\ud83c\udde6\ud83c\uddf2"
    }
  ]
}